O3B MPOWER F1           
1 54755U 22174A   23316.93901525 -.00000010  00000+0  00000+0 0  9991
2 54755   0.0533  18.8564 0005504 227.8806 253.5360  5.00118394 17955
